{"type": "FeatureCollection", "features": [ {"type": "Feature", "properties": {"norad_id": 33867, "name": "IRIDIUM 33 DEB", "group": "iridium-33-debris", "lat": -21.324013027275335, "lon": 176.90306139910578, "alt_km": 415.9610287516871, "timestamp": "2025-12-02T06:27:53.396580+00:00", "meta": {"OBJECT_NAME": "IRIDIUM 33 DEB", "OBJECT_ID": "1997-051AL", "EPOCH": "2025-12-01T12:35:00.924000", "MEAN_MOTION": 15.52112604, "ECCENTRICITY": 0.00117875, "INCLINATION": 86.3632, "RA_OF_ASC_NODE": 355.8583, "ARG_OF_PERICENTER": 103.3545, "MEAN_ANOMALY": 256.903, "EPHEMERIS_TYPE": 0, "CLASSIFICATION_TYPE": "U", "NORAD_CAT_ID": 33867, "ELEMENT_SET_NO": 999, "REV_AT_EPOCH": 89336, "BSTAR": 0.0059603838, "MEAN_MOTION_DOT": 0.00377274, "MEAN_MOTION_DDOT": 0}, "tle": {"line1": "1 33867U 97051AL  25335.52431625  .00377274  00000+0  59604-2 0  9990", "line2": "2 33867  86.3632 355.8583 0011787 103.3545 256.9030 15.52112604893360"}}, "geometry": {"type": "Point", "coordinates": [176.90306139910578, -21.324013027275335]}}, {"type": "Feature", "properties": {"norad_id": 33870, "name": "IRIDIUM 33 DEB", "group": "iridium-33-debris", "lat": -43.86142970370664, "lon": -113.75996857986725, "alt_km": 732.106802339189, "timestamp": "2025-12-02T06:27:53.396591+00:00", "meta": {"OBJECT_NAME": "IRIDIUM 33 DEB", "OBJECT_ID": "1997-051AP", "EPOCH": "2025-12-01T18:22:45.914016", "MEAN_MOTION": 14.45746903, "ECCENTRICITY": 0.0020333, "INCLINATION": 86.3755, "RA_OF_ASC_NODE": 62.9634, "ARG_OF_PERICENTER": 214.8922, "MEAN_ANOMALY": 269.7479, "EPHEMERIS_TYPE": 0, "CLASSIFICATION_TYPE": "U", "NORAD_CAT_ID": 33870, "ELEMENT_SET_NO": 999, "REV_AT_EPOCH": 87978, "BSTAR": 0.00087817, "MEAN_MOTION_DOT": 3.137e-05, "MEAN_MOTION_DDOT": 0}, "tle": {"line1": "1 33870U 97051AP  25335.76580919  .00003137  00000+0  87817-3 0  9993", "line2": "2 33870  86.3755  62.9634 0020333 214.8922 269.7479 14.45746903879782"}}, "geometry": {"type": "Point", "coordinates": [-113.75996857986725, -43.86142970370664]}}, {"type": "Feature", "properties": {"norad_id": 33881, "name": "IRIDIUM 33 DEB", "group": "iridium-33-debris", "lat": 52.02827546500453, "lon": 115.93367835049871, "alt_km": 740.0799777321172, "timestamp": "2025-12-02T06:27:53.396601+00:00", "meta": {"OBJECT_NAME": "IRIDIUM 33 DEB", "OBJECT_ID": "1997-051BA", "EPOCH": "2025-12-01T19:20:33.045792", "MEAN_MOTION": 14.56252651, "ECCENTRICITY": 0.0061043, "INCLINATION": 86.3869, "RA_OF_ASC_NODE": 111.4914, "ARG_OF_PERICENTER": 210.0929, "MEAN_ANOMALY": 294.4565, "EPHEMERIS_TYPE": 0, "CLASSIFICATION_TYPE": "U", "NORAD_CAT_ID": 33881, "ELEMENT_SET_NO": 999, "REV_AT_EPOCH": 87341, "BSTAR": 0.0018925, "MEAN_MOTION_DOT": 8.609e-05, "MEAN_MOTION_DDOT": 0}, "tle": {"line1": "1 33881U 97051BA  25335.80593803  .00008609  00000+0  18925-2 0  9998", "line2": "2 33881  86.3869 111.4914 0061043 210.0929 294.4565 14.56252651873418"}}, "geometry": {"type": "Point", "coordinates": [115.93367835049871, 52.02827546500453]}}, {"type": "Feature", "properties": {"norad_id": 33884, "name": "IRIDIUM 33 DEB", "group": "iridium-33-debris", "lat": -65.46931827515745, "lon": 6.548410197504038, "alt_km": 642.8504762452685, "timestamp": "2025-12-02T06:27:53.396611+00:00", "meta": {"OBJECT_NAME": "IRIDIUM 33 DEB", "OBJECT_ID": "1997-051BD", "EPOCH": "2025-12-01T11:28:58.158624", "MEAN_MOTION": 14.77093089, "ECCENTRICITY": 0.0010918, "INCLINATION": 86.3702, "RA_OF_ASC_NODE": 14.9006, "ARG_OF_PERICENTER": 4.651, "MEAN_ANOMALY": 46.8048, "EPHEMERIS_TYPE": 0, "CLASSIFICATION_TYPE": "U", "NORAD_CAT_ID": 33884, "ELEMENT_SET_NO": 999, "REV_AT_EPOCH": 88681, "BSTAR": 0.0016171827, "MEAN_MOTION_DOT": 0.00011462, "MEAN_MOTION_DDOT": 0}, "tle": {"line1": "1 33884U 97051BD  25335.47845091  .00011462  00000+0  16172-2 0  9996", "line2": "2 33884  86.3702  14.9006 0010918   4.6510  46.8048 14.77093089886818"}}, "geometry": {"type": "Point", "coordinates": [6.548410197504038, -65.46931827515745]}}, {"type": "Feature", "properties": {"norad_id": 33886, "name": "IRIDIUM 33 DEB", "group": "iridium-33-debris", "lat": -27.997552170256448, "lon": 69.70826501521377, "alt_km": 771.9936247114256, "timestamp": "2025-12-02T06:27:53.396621+00:00", "meta": {"OBJECT_NAME": "IRIDIUM 33 DEB", "OBJECT_ID": "1997-051BF", "EPOCH": "2025-12-01T19:27:55.995264", "MEAN_MOTION": 14.36029094, "ECCENTRICITY": 0.0012043, "INCLINATION": 86.3833, "RA_OF_ASC_NODE": 71.8281, "ARG_OF_PERICENTER": 283.5471, "MEAN_ANOMALY": 200.6063, "EPHEMERIS_TYPE": 0, "CLASSIFICATION_TYPE": "U", "NORAD_CAT_ID": 33886, "ELEMENT_SET_NO": 999, "REV_AT_EPOCH": 87895, "BSTAR": 0.00022861, "MEAN_MOTION_DOT": 6.84e-06, "MEAN_MOTION_DDOT": 0}, "tle": {"line1": "1 33886U 97051BF  25335.81106476  .00000684  00000+0  22861-3 0  9990", "line2": "2 33886  86.3833  71.8281 0012043 283.5471 200.6063 14.36029094878950"}}, "geometry": {"type": "Point", "coordinates": [69.70826501521377, -27.997552170256448]}}, {"type": "Feature", "properties": {"norad_id": 33887, "name": "IRIDIUM 33 DEB", "group": "iridium-33-debris", "lat": -44.00566620703154, "lon": -168.51759288152127, "alt_km": 772.8039573139658, "timestamp": "2025-12-02T06:27:53.396632+00:00", "meta": {"OBJECT_NAME": "IRIDIUM 33 DEB", "OBJECT_ID": "1997-051BG", "EPOCH": "2025-12-01T20:13:12.544320", "MEAN_MOTION": 14.37204978, "ECCENTRICITY": 0.0004044, "INCLINATION": 86.3053, "RA_OF_ASC_NODE": 8.088, "ARG_OF_PERICENTER": 279.1421, "MEAN_ANOMALY": 257.7662, "EPHEMERIS_TYPE": 0, "CLASSIFICATION_TYPE": "U", "NORAD_CAT_ID": 33887, "ELEMENT_SET_NO": 999, "REV_AT_EPOCH": 88008, "BSTAR": 0.0001583, "MEAN_MOTION_DOT": 4.91e-06, "MEAN_MOTION_DDOT": 0}, "tle": {"line1": "1 33887U 97051BG  25335.84250630  .00000491  00000+0  15830-3 0  9990", "line2": "2 33887  86.3053   8.0880 0004044 279.1421 257.7662 14.37204978880082"}}, "geometry": {"type": "Point", "coordinates": [-168.51759288152127, -44.00566620703154]}}, {"type": "Feature", "properties": {"norad_id": 33953, "name": "IRIDIUM 33 DEB", "group": "iridium-33-debris", "lat": 58.63617921163188, "lon": -127.63031410584776, "alt_km": 690.6329258795859, "timestamp": "2025-12-02T06:27:53.396641+00:00", "meta": {"OBJECT_NAME": "IRIDIUM 33 DEB", "OBJECT_ID": "1997-051BN", "EPOCH": "2025-12-01T11:49:34.999680", "MEAN_MOTION": 14.55133088, "ECCENTRICITY": 0.00184148, "INCLINATION": 86.3852, "RA_OF_ASC_NODE": 58.6594, "ARG_OF_PERICENTER": 137.1795, "MEAN_ANOMALY": 238.3819, "EPHEMERIS_TYPE": 0, "CLASSIFICATION_TYPE": "U", "NORAD_CAT_ID": 33953, "ELEMENT_SET_NO": 999, "REV_AT_EPOCH": 88140, "BSTAR": 0.0015798545, "MEAN_MOTION_DOT": 6.858e-05, "MEAN_MOTION_DDOT": 0}, "tle": {"line1": "1 33953U 97051BN  25335.49276620  .00006858  00000+0  15799-2 0  9998", "line2": "2 33953  86.3852  58.6594 0018414 137.1795 238.3819 14.55133088881408"}}, "geometry": {"type": "Point", "coordinates": [-127.63031410584776, 58.63617921163188]}}, {"type": "Feature", "properties": {"norad_id": 33960, "name": "IRIDIUM 33 DEB", "group": "iridium-33-debris", "lat": -74.12427196757034, "lon": 127.77184188378054, "alt_km": 628.0635752901362, "timestamp": "2025-12-02T06:27:53.396652+00:00", "meta": {"OBJECT_NAME": "IRIDIUM 33 DEB", "OBJECT_ID": "1997-051BV", "EPOCH": "2025-12-01T15:33:28.362816", "MEAN_MOTION": 14.84254066, "ECCENTRICITY": 0.00069003, "INCLINATION": 86.2525, "RA_OF_ASC_NODE": 294.7399, "ARG_OF_PERICENTER": 77.5875, "MEAN_ANOMALY": 100.2363, "EPHEMERIS_TYPE": 0, "CLASSIFICATION_TYPE": "U", "NORAD_CAT_ID": 33960, "ELEMENT_SET_NO": 999, "REV_AT_EPOCH": 88702, "BSTAR": 0.0032348033, "MEAN_MOTION_DOT": 0.00027199, "MEAN_MOTION_DDOT": 0}, "tle": {"line1": "1 33960U 97051BV  25335.64824494  .00027199  00000+0  32348-2 0  9991", "line2": "2 33960  86.2525 294.7399 0006900  77.5875 100.2363 14.84254066887028"}}, "geometry": {"type": "Point", "coordinates": [127.77184188378054, -74.12427196757034]}}, {"type": "Feature", "properties": {"norad_id": 33966, "name": "IRIDIUM 33 DEB", "group": "iridium-33-debris", "lat": 78.47471787968918, "lon": -147.49785574599898, "alt_km": 722.5998447884767, "timestamp": "2025-12-02T06:27:53.396662+00:00", "meta": {"OBJECT_NAME": "IRIDIUM 33 DEB", "OBJECT_ID": "1997-051CB", "EPOCH": "2025-12-01T15:37:57.426240", "MEAN_MOTION": 14.49515287, "ECCENTRICITY": 0.00062353, "INCLINATION": 86.3934, "RA_OF_ASC_NODE": 50.7847, "ARG_OF_PERICENTER": 229.0544, "MEAN_ANOMALY": 249.0715, "EPHEMERIS_TYPE": 0, "CLASSIFICATION_TYPE": "U", "NORAD_CAT_ID": 33966, "ELEMENT_SET_NO": 999, "REV_AT_EPOCH": 88281, "BSTAR": 0.0006195358, "MEAN_MOTION_DOT": 2.394e-05, "MEAN_MOTION_DDOT": 0}, "tle": {"line1": "1 33966U 97051CB  25335.65135910  .00002394  00000+0  61954-3 0  9992", "line2": "2 33966  86.3934  50.7847 0006235 229.0544 249.0715 14.49515287882816"}}, "geometry": {"type": "Point", "coordinates": [-147.49785574599898, 78.47471787968918]}}, {"type": "Feature", "properties": {"norad_id": 34071, "name": "IRIDIUM 33 DEB", "group": "iridium-33-debris", "lat": 7.502587612682743, "lon": -158.1030182913169, "alt_km": 724.352818151383, "timestamp": "2025-12-02T06:27:53.396672+00:00", "meta": {"OBJECT_NAME": "IRIDIUM 33 DEB", "OBJECT_ID": "1997-051CE", "EPOCH": "2025-12-01T14:45:36.923616", "MEAN_MOTION": 14.49382565, "ECCENTRICITY": 0.00093777, "INCLINATION": 86.347, "RA_OF_ASC_NODE": 22.6632, "ARG_OF_PERICENTER": 137.8371, "MEAN_ANOMALY": 222.3556, "EPHEMERIS_TYPE": 0, "CLASSIFICATION_TYPE": "U", "NORAD_CAT_ID": 34071, "ELEMENT_SET_NO": 999, "REV_AT_EPOCH": 88173, "BSTAR": 0.00062691272, "MEAN_MOTION_DOT": 2.416e-05, "MEAN_MOTION_DDOT": 0}, "tle": {"line1": "1 34071U 97051CE  25335.61501069  .00002416  00000+0  62691-3 0  9992", "line2": "2 34071  86.3470  22.6632 0009377 137.8371 222.3556 14.49382565881731"}}, "geometry": {"type": "Point", "coordinates": [-158.1030182913169, 7.502587612682743]}}]}